IRIDIUM 126             
1 42809U 17039G   25195.32947698  .00000263  00000+0  86825-4 0  9996
2 42809  86.4000 134.8909 0002428  80.7878 279.3592 14.34217410421529
IRIDIUM 124             
1 42810U 17039H   25195.61920380  .00000255  00000+0  69820-4 0  9996
2 42810  86.4462  71.4969 0001996  86.4405 273.7025 14.43276124426423
IRIDIUM 128             
1 42811U 17039J   25195.52952185  .00000019  00000+0 -36182-6 0  9991
2 42811  86.4007 166.2806 0001925  87.3134 272.8282 14.34217528421583
IRIDIUM 121             
1 42812U 17039K   25195.55781173  .00000086  00000+0  23549-4 0  9996
2 42812  86.4000 134.8209 0002209  86.9490 273.1959 14.34218123421432
IRIDIUM 133             
1 42955U 17061A   25195.56123541  .00000060  00000+0  14338-4 0  9997
2 42955  86.4008 166.3765 0002266  85.1529 274.9925 14.34217762406389
IRIDIUM 100             
1 42956U 17061B   25195.62465910  .00000039  00000+0  70366-5 0  9994
2 42956  86.4006 166.2768 0002179  81.7576 278.3867 14.34217131406414
IRIDIUM 122             
1 42957U 17061C   25195.45341109  .00000008  00000+0 -42575-5 0  9997
2 42957  86.4010 166.3477 0002153  83.7360 276.4081 14.34217406406370
IRIDIUM 129             
1 42958U 17061D   25195.47878267  .00000029  00000+0  32957-5 0  9995
2 42958  86.4007 166.4001 0002701  88.4793 271.6712 14.34217648406390
